[{"OBJECT_NAME":"OBJECT A","OBJECT_ID":"2024-153A","EPOCH":"2026-03-09T23:23:00.048768","MEAN_MOTION":15.38255179,"ECCENTRICITY":0.0008915,"INCLINATION":97.6577,"RA_OF_ASC_NODE":205.6534,"ARG_OF_PERICENTER":134.2023,"MEAN_ANOMALY":225.9955,"EPHEMERIS_TYPE":0,"CLASSIFICATION_TYPE":"U","NORAD_CAT_ID":60745,"ELEMENT_SET_NO":999,"REV_AT_EPOCH":8481,"BSTAR":0.0015987214,"MEAN_MOTION_DOT":0.00060651,"MEAN_MOTION_DDOT":0},{"OBJECT_NAME":"CZ-6A DEB","OBJECT_ID":"2024-140ZM","EPOCH":"2026-03-09T08:08:19.885920","MEAN_MOTION":14.97554426,"ECCENTRICITY":0.01813088,"INCLINATION":90.2734,"RA_OF_ASC_NODE":12.4689,"ARG_OF_PERICENTER":116.477,"MEAN_ANOMALY":245.5188,"EPHEMERIS_TYPE":0,"CLASSIFICATION_TYPE":"U","NORAD_CAT_ID":61455,"ELEMENT_SET_NO":999,"REV_AT_EPOCH":8308,"BSTAR":0.00078895456,"MEAN_MOTION_DOT":0.00012969,"MEAN_MOTION_DDOT":0}]
